0 FENGYUN 1C DEB
1 30004U 99025MD  13284.15698422  .00000975  00000-0  59924-3 0   430
2 30004 099.1093 350.0392 0043180 212.3777 200.0945 14.07646826346295
0 FENGYUN 1C DEB
1 30004U 99025MD  13286.66479005  .00001043  00000-0  63860-3 0   444
2 30004 099.1092 352.5679 0043364 205.5081 308.3646 14.07650416346644
0 FENGYUN 1C DEB
1 30004U 99025MD  13288.85596020  .00001011  00000-0  62011-3 0   457
2 30004 099.1087 354.7775 0043437 199.5122 252.1103 14.07657903346954
0 FENGYUN 1C DEB
1 30004U 99025MD  13291.12351870  .00000693  00000-0  43334-3 0   466
2 30004 099.1082 357.0641 0043486 193.3319 222.9802 14.07664350347272
0 FENGYUN 1C DEB
1 30004U 99025MD  13293.18578557  .00000723  00000-0  45063-3 0   473
2 30004 099.1078 359.1436 0043548 187.6834 233.6095 14.07667899347565
0 FENGYUN 1C DEB
1 30004U 99025MD  13295.53038439  .00000841  00000-0  52003-3 0   488
2 30004 099.1078 001.5073 0043643 181.3425 234.9251 14.07671387347894
